[{"OBJECT_NAME":"LAPAN-A3","OBJECT_ID":"2016-040E","EPOCH":"2026-03-09T23:01:57.724896","MEAN_MOTION":15.3238951,"ECCENTRICITY":0.00109839,"INCLINATION":97.1488,"RA_OF_ASC_NODE":68.4254,"ARG_OF_PERICENTER":22.062,"MEAN_ANOMALY":338.1093,"EPHEMERIS_TYPE":0,"CLASSIFICATION_TYPE":"U","NORAD_CAT_ID":41603,"ELEMENT_SET_NO":999,"REV_AT_EPOCH":53961,"BSTAR":0.00017567445,"MEAN_MOTION_DOT":5.428e-5,"MEAN_MOTION_DDOT":0},{"OBJECT_NAME":"STARLINK-32631","OBJECT_ID":"2024-231T","EPOCH":"2026-03-09T15:26:14.296992","MEAN_MOTION":15.30195965,"ECCENTRICITY":0.000128,"INCLINATION":53.1611,"RA_OF_ASC_NODE":206.8965,"ARG_OF_PERICENTER":84.9118,"MEAN_ANOMALY":275.2028,"EPHEMERIS_TYPE":0,"CLASSIFICATION_TYPE":"U","NORAD_CAT_ID":62235,"ELEMENT_SET_NO":999,"REV_AT_EPOCH":7193,"BSTAR":0.0012968,"MEAN_MOTION_DOT":0.0003824,"MEAN_MOTION_DDOT":0}]
